STARLINK-4461
1 53503U 22099AQ  26090.88518984  .01377720  25694-5  68179-3 0  9998
2 53503  97.6312 241.4930 0005535 296.0219  64.0499 16.20936192201112
